{
  "type": "FeatureCollection",
  "features": [
    {
      "type": "Feature",
      "properties": {
        "norad_id": 39766,
        "name": "ALOS-2",
        "group": "resource",
        "lat": -0.9422666897634664,
        "lon": 79.25329778501047,
        "alt_km": 634.2693968613958,
        "timestamp": "2025-12-10T05:46:13.454331+00:00",
        "meta_object_name": "ALOS-2",
        "meta_object_id": "2014-029A",
        "meta_epoch": "2025-12-09T20:02:07.876896",
        "meta_mean_motion": 14.79463674,
        "meta_eccentricity": 0.0001506,
        "meta_inclination": 97.9226,
        "meta_ra_of_asc_node": 78.7223,
        "meta_arg_of_pericenter": 96.9697,
        "meta_mean_anomaly": 263.1686,
        "meta_ephemeris_type": 0,
        "meta_classification_type": "U",
        "meta_norad_cat_id": 39766,
        "meta_element_set_no": 999,
        "meta_rev_at_epoch": 62358,
        "meta_bstar": 0.00050358,
        "meta_mean_motion_dot": 3.711e-05,
        "meta_mean_motion_ddot": 0,
        "tle_line1": "1 39766U 14029A   25343.83481339  .00003711  00000+0  50358-3 0  9998",
        "tle_line2": "2 39766  97.9226  78.7223 0001506  96.9697 263.1686 14.79463674623582"
      },
      "geometry": {
        "type": "Point",
        "coordinates": [
          79.25329778501047,
          -0.9422666897634664
        ]
      }
    },
    {
      "type": "Feature",
      "properties": {
        "norad_id": 40010,
        "name": "KAZEOSAT 2",
        "group": "resource",
        "lat": -37.91166377425702,
        "lon": 2.754529433579782,
        "alt_km": 614.273253611038,
        "timestamp": "2025-12-10T05:46:13.454341+00:00",
        "meta_object_name": "KAZEOSAT 2",
        "meta_object_id": "2014-033A",
        "meta_epoch": "2025-12-09T20:42:20.639232",
        "meta_mean_motion": 14.85160969,
        "meta_eccentricity": 0.0007519,
        "meta_inclination": 97.5501,
        "meta_ra_of_asc_node": 188.3254,
        "meta_arg_of_pericenter": 217.1164,
        "meta_mean_anomaly": 142.9533,
        "meta_ephemeris_type": 0,
        "meta_classification_type": "U",
        "meta_norad_cat_id": 40010,
        "meta_element_set_no": 999,
        "meta_rev_at_epoch": 62085,
        "meta_bstar": 0.00018582,
        "meta_mean_motion_dot": 1.541e-05,
        "meta_mean_motion_ddot": 0,
        "tle_line1": "1 40010U 14033A   25343.86273888  .00001541  00000+0  18582-3 0  9990",
        "tle_line2": "2 40010  97.5501 188.3254 0007519 217.1164 142.9533 14.85160969620856"
      },
      "geometry": {
        "type": "Point",
        "coordinates": [
          2.754529433579782,
          -37.91166377425702
        ]
      }
    },
    {
      "type": "Feature",
      "properties": {
        "norad_id": 40011,
        "name": "HODOYOSHI-4",
        "group": "resource",
        "lat": -72.85809657603022,
        "lon": -161.3153272797001,
        "alt_km": 609.3099799626525,
        "timestamp": "2025-12-10T05:46:13.454351+00:00",
        "meta_object_name": "HODOYOSHI-4",
        "meta_object_id": "2014-033B",
        "meta_epoch": "2025-12-09T20:25:07.781664",
        "meta_mean_motion": 14.8746304,
        "meta_eccentricity": 0.0022987,
        "meta_inclination": 97.5416,
        "meta_ra_of_asc_node": 172.8774,
        "meta_arg_of_pericenter": 210.5854,
        "meta_mean_anomaly": 149.4024,
        "meta_ephemeris_type": 0,
        "meta_classification_type": "U",
        "meta_norad_cat_id": 40011,
        "meta_element_set_no": 999,
        "meta_rev_at_epoch": 62065,
        "meta_bstar": 0.00018287,
        "meta_mean_motion_dot": 1.612e-05,
        "meta_mean_motion_ddot": 0,
        "tle_line1": "1 40011U 14033B   25343.85078451  .00001612  00000+0  18287-3 0  9990",
        "tle_line2": "2 40011  97.5416 172.8774 0022987 210.5854 149.4024 14.87463040620659"
      },
      "geometry": {
        "type": "Point",
        "coordinates": [
          -161.3153272797001,
          -72.85809657603022
        ]
      }
    },
    {
      "type": "Feature",
      "properties": {
        "norad_id": 40013,
        "name": "DEIMOS-2",
        "group": "resource",
        "lat": 32.682839164746674,
        "lon": -144.79482557493523,
        "alt_km": 586.4146512246443,
        "timestamp": "2025-12-10T05:46:13.454361+00:00",
        "meta_object_name": "DEIMOS-2",
        "meta_object_id": "2014-033D",
        "meta_epoch": "2025-12-09T21:34:49.070784",
        "meta_mean_motion": 14.92955541,
        "meta_eccentricity": 0.0001047,
        "meta_inclination": 97.6065,
        "meta_ra_of_asc_node": 219.7936,
        "meta_arg_of_pericenter": 91.8415,
        "meta_mean_anomaly": 268.2924,
        "meta_ephemeris_type": 0,
        "meta_classification_type": "U",
        "meta_norad_cat_id": 40013,
        "meta_element_set_no": 999,
        "meta_rev_at_epoch": 60947,
        "meta_bstar": 0.00036902,
        "meta_mean_motion_dot": 3.777e-05,
        "meta_mean_motion_ddot": 0,
        "tle_line1": "1 40013U 14033D   25343.89917906  .00003777  00000+0  36902-3 0  9991",
        "tle_line2": "2 40013  97.6065 219.7936 0001047  91.8415 268.2924 14.92955541609474"
      },
      "geometry": {
        "type": "Point",
        "coordinates": [
          -144.79482557493523,
          32.682839164746674
        ]
      }
    },
    {
      "type": "Feature",
      "properties": {
        "norad_id": 40015,
        "name": "HODOYOSHI-3",
        "group": "resource",
        "lat": -53.850016470939444,
        "lon": -40.375015069158316,
        "alt_km": 600.6368348155484,
        "timestamp": "2025-12-10T05:46:13.454371+00:00",
        "meta_object_name": "HODOYOSHI-3",
        "meta_object_id": "2014-033F",
        "meta_epoch": "2025-12-09T17:23:36.960576",
        "meta_mean_motion": 14.84791818,
        "meta_eccentricity": 0.0031812,
        "meta_inclination": 97.62,
        "meta_ra_of_asc_node": 149.6911,
        "meta_arg_of_pericenter": 258.2861,
        "meta_mean_anomaly": 101.4784,
        "meta_ephemeris_type": 0,
        "meta_classification_type": "U",
        "meta_norad_cat_id": 40015,
        "meta_element_set_no": 999,
        "meta_rev_at_epoch": 61950,
        "meta_bstar": 0.00035855,
        "meta_mean_motion_dot": 3.017e-05,
        "meta_mean_motion_ddot": 0,
        "tle_line1": "1 40015U 14033F   25343.72473334  .00003017  00000+0  35855-3 0  9990",
        "tle_line2": "2 40015  97.6200 149.6911 0031812 258.2861 101.4784 14.84791818619501"
      },
      "geometry": {
        "type": "Point",
        "coordinates": [
          -40.375015069158316,
          -53.850016470939444
        ]
      }
    },
    {
      "type": "Feature",
      "properties": {
        "norad_id": 40053,
        "name": "SPOT 7",
        "group": "resource",
        "lat": 6.299803759133129,
        "lon": -132.72701343349613,
        "alt_km": 692.8755679209862,
        "timestamp": "2025-12-10T05:46:13.454381+00:00",
        "meta_object_name": "SPOT 7",
        "meta_object_id": "2014-034A",
        "meta_epoch": "2025-12-09T20:45:31.449312",
        "meta_mean_motion": 14.60727246,
        "meta_eccentricity": 0.0001549,
        "meta_inclination": 98.0905,
        "meta_ra_of_asc_node": 46.0064,
        "meta_arg_of_pericenter": 88.9074,
        "meta_mean_anomaly": 271.2304,
        "meta_ephemeris_type": 0,
        "meta_classification_type": "U",
        "meta_norad_cat_id": 40053,
        "meta_element_set_no": 999,
        "meta_rev_at_epoch": 60949,
        "meta_bstar": 0.00013626,
        "meta_mean_motion_dot": 6.19e-06,
        "meta_mean_motion_ddot": 0,
        "tle_line1": "1 40053U 14034A   25343.86494733  .00000619  00000+0  13626-3 0  9991",
        "tle_line2": "2 40053  98.0905  46.0064 0001549  88.9074 271.2304 14.60727246609496"
      },
      "geometry": {
        "type": "Point",
        "coordinates": [
          -132.72701343349613,
          6.299803759133129
        ]
      }
    },
    {
      "type": "Feature",
      "properties": {
        "norad_id": 40072,
        "name": "SKYSAT-B",
        "group": "resource",
        "lat": -48.96514409774335,
        "lon": 98.08613025105201,
        "alt_km": 611.9241030562998,
        "timestamp": "2025-12-10T05:46:13.454391+00:00",
        "meta_object_name": "SKYSAT-B",
        "meta_object_id": "2014-037D",
        "meta_epoch": "2025-12-09T19:03:13.836960",
        "meta_mean_motion": 14.87310727,
        "meta_eccentricity": 0.0005909,
        "meta_inclination": 98.3608,
        "meta_ra_of_asc_node": 287.3443,
        "meta_arg_of_pericenter": 159.0693,
        "meta_mean_anomaly": 201.0764,
        "meta_ephemeris_type": 0,
        "meta_classification_type": "U",
        "meta_norad_cat_id": 40072,
        "meta_element_set_no": 999,
        "meta_rev_at_epoch": 61780,
        "meta_bstar": 0.00038192,
        "meta_mean_motion_dot": 3.387e-05,
        "meta_mean_motion_ddot": 0,
        "tle_line1": "1 40072U 14037D   25343.79391015  .00003387  00000+0  38192-3 0  9996",
        "tle_line2": "2 40072  98.3608 287.3443 0005909 159.0693 201.0764 14.87310727617808"
      },
      "geometry": {
        "type": "Point",
        "coordinates": [
          98.08613025105201,
          -48.96514409774335
        ]
      }
    }
  ]
}